ISS (ZARYA)
1 25544U 98067A   26263.51829341  .00016717  00000-0  10270-3 0  9997
2 25544  51.6416 247.4627 0006703 130.5360 325.0288 15.72125391563537
TIANGONG (CSS)
1 48274U 21035A   26263.48912037  .00021480  00000-0  14562-3 0  9995
2 48274  41.4728 185.1245 0005128  84.2154 275.9241 15.60214820295127
HST (HUBBLE)
1 20580U 90037B   26263.31428519  .00001428  00000-0  48210-4 0  9990
2 20580  28.4688  72.1945 0002841 112.5482 247.5912 15.09142871784916
ENVISAT
1 27386U 02009A   26263.29814521  .00000125  00000-0  54812-4 0  9990
2 27386  98.1245 315.4215 0001428  65.1245 295.0124 14.38124591142510
TERRA
1 25994U 99068A   26263.41258914  .00000214  00000-0  74125-4 0  9994
2 25994  98.2045 142.1582 0001185  89.4125 270.7412 14.57112451384218
AQUA
1 27424U 02022A   26263.38541289  .00000201  00000-0  69841-4 0  9999
2 27424  98.2014 135.4871 0001245  78.1452 281.9841 14.57118941274123
SUOMI NPP
1 37849U 11061A   26263.42158941  .00000185  00000-0  61245-4 0  9999
2 37849  98.7125 220.1458 0001124 105.4125 254.7125 14.19521481741254
NOAA 19
1 33591U 09005A   26263.40125841  .00000192  00000-0  65124-4 0  9993
2 33591  98.7045 210.4582 0001284  95.4125 264.7125 14.19514821874124
